NORAD_CAT_ID,OBJECT_NAME,OBJECT_TYPE,EPOCH,MEAN_MOTION,ECCENTRICITY,INCLINATION,RA_OF_ASC_NODE,ARG_OF_PERICENTER,MEAN_ANOMALY,BSTAR,MEAN_MOTION_DOT,MEAN_MOTION_DDOT,TLE_LINE0,TLE_LINE1,TLE_LINE2,SEMIMAJOR_AXIS,PERIOD,APOGEE,PERIGEE,DECAYED
50206.0,STARLINK-3258,PAYLOAD,2023-01-24 05:04:37,15.08851397,0.0001428,53.2139,318.9369,82.8537,277.2618,0.0011819,0.00018578,0.0,0 STARLINK-3258,1 50206U 21125BC  23024.21153997  .00018578  00000-0  11819-2 0  9993,2 50206  53.2139 318.9369 0001428  82.8537 277.2618 15.08851397 62485,6917.846,95.437,540.698,538.7230000000001,0.0
50206.0,STARLINK-3258,PAYLOAD,2023-01-25 04:55:23,15.08865682,0.0001105999999999,53.2136,314.47700000000003,84.7866,275.3252,0.00095701,0.00014986,0.0,0 STARLINK-3258,1 50206U 21125BC  23025.20513411  .00014986  00000-0  95701-3 0  9996,2 50206  53.2136 314.4770 0001106  84.7866 275.3252 15.08865682 62630,6917.802,95.436,540.432,538.9019999999999,0.0
50206.0,STARLINK-3258,PAYLOAD,2023-01-26 01:35:24,15.08851606,0.0001103,53.2136,310.6124,86.0815,274.0303,0.0014353,0.00022636,0.0,0 STARLINK-3258,1 50206U 21125BC  23026.06625791  .00022636  00000-0  14353-2 0  9990,2 50206  53.2136 310.6124 0001103  86.0815 274.0303 15.08851606 62765,6917.845,95.437,540.4730000000001,538.947,0.0
50206.0,STARLINK-3258,PAYLOAD,2023-01-27 01:26:11,15.08858626,0.0001121,53.2125,306.1511,78.4518,281.66,0.0016359999999999,0.00025858,0.0,0 STARLINK-3258,1 50206U 21125BC  23027.05985611  .00025858  00000-0  16360-2 0  9999,2 50206  53.2125 306.1511 0001121  78.4518 281.6600 15.08858626 62918,6917.823,95.436,540.464,538.913,0.0
50206.0,STARLINK-3258,PAYLOAD,2023-01-27 03:01:34,15.08865987,0.0001167999999999,53.2128,305.8541,71.5599,288.552,0.0016042,0.00025353,0.0,0 STARLINK-3258,1 50206U 21125BC  23027.12609435  .00025353  00000-0  16042-2 0  9991,2 50206  53.2128 305.8541 0001168  71.5599 288.5520 15.08865987 62920,6917.801,95.436,540.474,538.8580000000001,0.0
50206.0,STARLINK-3258,PAYLOAD,2023-01-28 02:52:22,15.0884271,0.0001036999999999,53.2128,301.3928,89.7207,270.3904,0.0010733,0.00016836,0.0,0 STARLINK-3258,1 50206U 21125BC  23028.11970034  .00016836  00000-0  10733-2 0  9994,2 50206  53.2128 301.3928 0001037  89.7207 270.3904 15.08842710 63073,6917.871999999999,95.437,540.4540000000001,539.02,0.0
50206.0,STARLINK-3258,PAYLOAD,2023-01-28 21:57:00,15.08834922,0.000128,53.213,297.825,90.0585,270.0554,0.00091123,0.00014242,0.0,0 STARLINK-3258,1 50206U 21125BC  23028.91458445  .00014242  00000-0  91123-3 0  9991,2 50206  53.2130 297.8250 0001280  90.0585 270.0554 15.08834922 63194,6917.896,95.438,540.646,538.875,0.0
50206.0,STARLINK-3258,PAYLOAD,2023-01-29 04:18:32,15.08844414,0.0001076,53.2123,296.6344,83.8918,276.2196,0.00042088,6.418e-05,0.0,0 STARLINK-3258,1 50206U 21125BC  23029.17954241  .00006418  00000-0  42088-3 0  9997,2 50206  53.2123 296.6344 0001076  83.8918 276.2196 15.08844414 63232,6917.867,95.437,540.476,538.988,0.0
50206.0,STARLINK-3258,PAYLOAD,2023-01-30 02:33:56,15.08845807,0.0001258,53.2127,292.4697,85.8177,274.2958,0.0002955,4.419e-05,0.0,0 STARLINK-3258,1 50206U 21125BC  23030.10690314  .00004419  00000-0  29550-3 0  9998,2 50206  53.2127 292.4697 0001258  85.8177 274.2958 15.08845807 63378,6917.863,95.437,540.598,538.857,0.0
50206.0,STARLINK-3258,PAYLOAD,2023-01-30 21:38:34,15.08837041,0.000121,53.2134,288.8982,103.937,256.1757,6.403e-05,7.31e-06,0.0,0 STARLINK-3258,1 50206U 21125BC  23030.90178472  .00000731  00000-0  64030-4 0  9998,2 50206  53.2134 288.8982 0001210 103.9370 256.1757 15.08837041 63497,6917.889,95.438,540.591,538.917,0.0
50206.0,STARLINK-3258,PAYLOAD,2023-01-30 23:13:57,15.08838991,0.0001252,53.2134,288.6035,87.7372,272.3763,7.2841e-05,8.72e-06,0.0,0 STARLINK-3258,1 50206U 21125BC  23030.96802627  .00000872  00000-0  72841-4 0  9995,2 50206  53.2134 288.6035 0001252  87.7372 272.3763 15.08838991 63505,6917.883,95.438,540.615,538.882,0.0
50206.0,STARLINK-3258,PAYLOAD,2023-01-31 02:24:43,15.08841899,0.0001237,53.2132,288.0078,98.1202,261.993,0.00014427,2.009e-05,0.0,0 STARLINK-3258,1 50206U 21125BC  23031.10050467  .00002009  00000-0  14427-3 0  9998,2 50206  53.2132 288.0078 0001237  98.1202 261.9930 15.08841899 63528,6917.875,95.437,540.595,538.884,0.0
50206.0,STARLINK-3258,PAYLOAD,2023-01-31 16:43:11,15.08842567,0.0001254,53.2126,285.3323,90.0271,270.0864,0.00017904,2.563e-05,0.0,0 STARLINK-3258,1 50206U 21125BC  23031.69666640  .00002563  00000-0  17904-3 0  9996,2 50206  53.2126 285.3323 0001254  90.0271 270.0864 15.08842567 63610,6917.873,95.437,540.605,538.87,0.0
50206.0,STARLINK-3258,PAYLOAD,2023-02-01 02:15:30,15.08851983,0.0001268,53.2113,283.5496,78.9505,281.163,0.000356,5.384e-05,0.0,0 STARLINK-3258,1 50206U 21125BC  23032.09410243  .00005384  00000-0  35600-3 0  9994,2 50206  53.2113 283.5496 0001268  78.9505 281.1630 15.08851983 63679,6917.844,95.437,540.586,538.832,0.0
50206.0,STARLINK-3258,PAYLOAD,2023-02-01 14:58:35,15.08844475,0.0001316,53.2116,281.1712,79.0756,281.0385,0.00017392,2.481e-05,0.0,0 STARLINK-3258,1 50206U 21125BC  23032.62402437  .00002481  00000-0  17392-3 0  9992,2 50206  53.2116 281.1712 0001316  79.0756 281.0385 15.08844475 63754,6917.867,95.437,540.642,538.821,0.0
50206.0,STARLINK-3258,PAYLOAD,2023-02-02 02:06:17,15.08850899,0.0001236,53.2116,279.0889,82.8304,277.2829,0.0002483,3.667e-05,0.0,0 STARLINK-3258,1 50206U 21125BC  23033.08770043  .00003667  00000-0  24830-3 0  9996,2 50206  53.2116 279.0889 0001236  82.8304 277.2829 15.08850899 63822,6917.847,95.437,540.567,538.857,0.0
50206.0,STARLINK-3258,PAYLOAD,2023-02-02 22:46:17,15.08848774,0.0001553,53.2097,275.2227,89.1229,270.9941,0.0001405,1.949e-05,0.0,0 STARLINK-3258,1 50206U 21125BC  23033.94881824  .00001949  00000-0  14050-3 0  9995,2 50206  53.2097 275.2227 0001553  89.1229 270.9941 15.08848774 63950,6917.854,95.437,540.793,538.644,0.0
50206.0,STARLINK-3258,PAYLOAD,2023-02-03 01:57:04,15.08849538,0.000127,53.2101,274.6281,86.2831,273.8306,0.00012427,1.691e-05,0.0,0 STARLINK-3258,1 50206U 21125BC  23034.08129688  .00001691  00000-0  12427-3 0  9994,2 50206  53.2101 274.6281 0001270  86.2831 273.8306 15.08849538 63970,6917.851,95.437,540.595,538.838,0.0
50206.0,STARLINK-3258,PAYLOAD,2023-02-03 16:15:33,15.08830406,6.42e-05,53.2113,271.9509,53.3894,306.7157,-7.4402e-05,-1.471e-05,0.0,0 STARLINK-3258,1 50206U 21125BC  23034.67746690 -.00001471  00000-0 -74402-4 0  9997,2 50206  53.2113 271.9509 0000642  53.3894 306.7157 15.08830406 64067,6917.91,95.438,540.219,539.331,0.0
50206.0,STARLINK-3258,PAYLOAD,2023-02-04 22:27:52,15.08844084,0.000121,53.2112,266.301,100.1933,259.9196,0.00017321,2.47e-05,0.0,0 STARLINK-3258,1 50206U 21125BC  23035.93602263  .00002470  00000-0  17321-3 0  9998,2 50206  53.2112 266.3010 0001210 100.1933 259.9196 15.08844084 64258,6917.868,95.437,540.57,538.896,0.0
50206.0,STARLINK-3258,PAYLOAD,2023-02-05 14:21:44,15.08834783,0.0001157,53.211,263.3269,99.0638,261.0485,4.5984e-05,4.44e-06,0.0,0 STARLINK-3258,1 50206U 21125BC  23036.59842766  .00000444  00000-0  45984-4 0  9991,2 50206  53.2110 263.3269 0001157  99.0638 261.0485 15.08834783 64358,6917.896,95.438,540.562,538.961,0.0
50206.0,STARLINK-3258,PAYLOAD,2023-02-05 22:18:39,15.08835524,0.0001148,53.2112,261.8397,97.698,262.4142,6.4198e-05,7.34e-06,0.0,0 STARLINK-3258,1 50206U 21125BC  23036.92962914  .00000734  00000-0  64198-4 0  9996,2 50206  53.2112 261.8397 0001148  97.6980 262.4142 15.08835524 64404,6917.894,95.438,540.553,538.965,0.0
50206.0,STARLINK-3258,PAYLOAD,2023-02-06 14:12:31,15.08840575,0.0001113,53.2112,258.8658,91.971,268.141,0.00013288,1.828e-05,0.0,0 STARLINK-3258,1 50206U 21125BC  23037.59202876  .00001828  00000-0  13288-3 0  9992,2 50206  53.2112 258.8658 0001113  91.9710 268.1410 15.08840575 64504,6917.879,95.438,540.514,538.974,0.0
50206.0,STARLINK-3258,PAYLOAD,2023-02-06 20:34:03,15.08846827,0.0001115,53.2111,257.6761,92.5199,267.5921,0.00016374,2.32e-05,0.0,0 STARLINK-3258,1 50206U 21125BC  23037.85698534  .00002320  00000-0  16374-3 0  9998,2 50206  53.2111 257.6761 0001115  92.5199 267.5921 15.08846827 64545,6917.86,95.437,540.496,538.953,0.0
50206.0,STARLINK-3258,PAYLOAD,2023-02-06 22:09:26,15.08848585,0.0001121,53.2114,257.3789,91.8934,268.2187,0.00018961,2.732e-05,0.0,0 STARLINK-3258,1 50206U 21125BC  23037.92322442  .00002732  00000-0  18961-3 0  9999,2 50206  53.2114 257.3789 0001121  91.8934 268.2187 15.08848585 64557,6917.854,95.437,540.495,538.944,0.0
50206.0,STARLINK-3258,PAYLOAD,2023-02-07 14:03:18,15.08839462,0.0001172,53.2111,254.4049,88.4498,271.6628,0.00012605,1.719e-05,0.0,0 STARLINK-3258,1 50206U 21125BC  23038.58562963  .00001719  00000-0  12605-3 0  9999,2 50206  53.2111 254.4049 0001172  88.4498 271.6628 15.08839462 64657,6917.882,95.438,540.558,538.936,0.0
50206.0,STARLINK-3258,PAYLOAD,2023-02-07 22:00:13,15.08844066,0.00011,53.2118,252.919,84.4394,275.6723,0.00017136,2.441e-05,0.0,0 STARLINK-3258,1 50206U 21125BC  23038.91682756  .00002441  00000-0  17136-3 0  9996,2 50206  53.2118 252.9190 0001100  84.4394 275.6723 15.08844066 64708,6917.868,95.437,540.494,538.972,0.0
50206.0,STARLINK-3258,PAYLOAD,2023-02-08 18:40:14,15.08841572,0.0001092,53.2128,249.053,90.615,269.4968,4.9479e-05,5e-06,0.0,0 STARLINK-3258,1 50206U 21125BC  23039.77794961  .00000500  00000-0  49479-4 0  9993,2 50206  53.2128 249.0530 0001092  90.6150 269.4968 15.08841572 64838,6917.876,95.437,540.496,538.985,0.0
50206.0,STARLINK-3258,PAYLOAD,2023-02-08 20:15:37,15.08843815,0.0001121,53.2129,248.7556,86.8894,273.2226,0.00013346,1.837e-05,0.0,0 STARLINK-3258,1 50206U 21125BC  23039.84418853  .00001837  00000-0  13346-3 0  9991,2 50206  53.2129 248.7556 0001121  86.8894 273.2226 15.08843815 64841,6917.869,95.437,540.509,538.958,0.0
50206.0,STARLINK-3258,PAYLOAD,2023-02-08 21:51:00,15.08846717,0.0001107,53.2128,248.4581,88.1343,271.9776,0.00020398,2.961e-05,0.0,0 STARLINK-3258,1 50206U 21125BC  23039.91042773  .00002961  00000-0  20398-3 0  9997,2 50206  53.2128 248.4581 0001107  88.1343 271.9776 15.08846717 64853,6917.86,95.437,540.491,538.959,0.0
